IRIDIUM 159             
1 43578U 18061K   25304.01664882  .00000025  00000+0  18236-5 0  9993
2 43578  86.3984 152.5152 0002095  89.5008 270.6428 14.34217791380531
IRIDIUM 180             
1 43922U 19002A   25303.94637412  .00000369  00000+0  12478-3 0  9993
2 43922  86.3928  89.4333 0002237  89.1943 270.9509 14.34217112356132
IRIDIUM 176             
1 43923U 19002B   25303.90391448  .00001611  00000+0  25154-3 0  9992
2 43923  86.6055  89.4281 0001953  75.8881 284.2553 14.72252235365512
IRIDIUM 168             
1 43924U 19002C   25303.94003300  .00001150  00000+0  40357-3 0  9994
2 43924  86.3933  89.5071 0002090  89.8324 270.3111 14.34219408356118
IRIDIUM 173             
1 43925U 19002D   25303.92734826  .00000327  00000+0  10986-3 0  9997
2 43925  86.3930  89.4106 0002155  87.5371 272.6071 14.34218441356096
IRIDIUM 169             
1 43926U 19002E   25304.20508741  .00000171  00000+0  49468-4 0  9990
2 43926  86.4189 120.9442 0002189  56.2228 303.9179 14.38606095357301
IRIDIUM 172             
1 43927U 19002F   25303.92100636  .00000102  00000+0  29330-4 0  9990
2 43927  86.3929  89.4204 0002273  92.8657 267.2799 14.34218045356101
IRIDIUM 175             
1 43928U 19002G   25304.30690913  .00001020  00000+0  15783-3 0  9992
2 43928  86.1528  34.0498 0001533 112.4997 247.6382 14.72242341365568
